[
    {
        "Altitude(m)": 705459.31984171,
        "Argument of Periapsis(deg)": 0.007973084830638947,
        "Eccentricity": 0.0,
        "Inclination(deg)": 45.0,
        "Latitude(deg)": 36.58542683391576,
        "Longitude(deg)": -32.94710268541255,
        "Mean Anomaly(deg)": 57.16415165323658,
        "RAAN(deg)": 19.992473640979256,
        "Satellite Name": "Constellation 1 91",
        "Satellite Number": 91,
        "Semi-Major Axis(m)": 7083131.272910544,
        "Time(s)": 133
    },
    {
        "Altitude(m)": 705465.1333068737,
        "Argument of Periapsis(deg)": 0.008033032836884352,
        "Eccentricity": 0.0,
        "Inclination(deg)": 45.0,
        "Latitude(deg)": 36.614464315749416,
        "Longitude(deg)": -32.88485818694351,
        "Mean Anomaly(deg)": 57.22485279348648,
        "RAAN(deg)": 19.99241705181369,
        "Satellite Name": "Constellation 1 91",
        "Satellite Number": 91,
        "Semi-Major Axis(m)": 7083131.272910544,
        "Time(s)": 134
    },
    {
        "Altitude(m)": 705470.9432303213,
        "Argument of Periapsis(deg)": 0.008092980843129758,
        "Eccentricity": 0.0,
        "Inclination(deg)": 45.0,
        "Latitude(deg)": 36.643464691982594,
        "Longitude(deg)": -32.82256397846314,
        "Mean Anomaly(deg)": 57.28555393373637,
        "RAAN(deg)": 19.99236046264812,
        "Satellite Name": "Constellation 1 91",
        "Satellite Number": 91,
        "Semi-Major Axis(m)": 7083131.272910544,
        "Time(s)": 135
    },
    {
        "Altitude(m)": 705476.7495757185,
        "Argument of Periapsis(deg)": 0.008152928849375162,
        "Eccentricity": 0.0,
        "Inclination(deg)": 45.0,
        "Latitude(deg)": 36.67242789638742,
        "Longitude(deg)": -32.76022003370261,
        "Mean Anomaly(deg)": 57.34625507398628,
        "RAAN(deg)": 19.99230387348255,
        "Satellite Name": "Constellation 1 91",
        "Satellite Number": 91,
        "Semi-Major Axis(m)": 7083131.272910544,
        "Time(s)": 136
    },
    {
        "Altitude(m)": 705482.5523067575,
        "Argument of Periapsis(deg)": 0.008212876855620568,
        "Eccentricity": 0.0,
        "Inclination(deg)": 45.0,
        "Latitude(deg)": 36.701353862685195,
        "Longitude(deg)": -32.69782632666657,
        "Mean Anomaly(deg)": 57.406956214236175,
        "RAAN(deg)": 19.99224728431698,
        "Satellite Name": "Constellation 1 91",
        "Satellite Number": 91,
        "Semi-Major Axis(m)": 7083131.272910544,
        "Time(s)": 137
    },
    {
        "Altitude(m)": 705488.3513871698,
        "Argument of Periapsis(deg)": 0.008272824861865974,
        "Eccentricity": 0.0,
        "Inclination(deg)": 45.0,
        "Latitude(deg)": 36.730242524546505,
        "Longitude(deg)": -32.63538283163458,
        "Mean Anomaly(deg)": 57.467657354486064,
        "RAAN(deg)": 19.992190695151407,
        "Satellite Name": "Constellation 1 91",
        "Satellite Number": 91,
        "Semi-Major Axis(m)": 7083131.272910544,
        "Time(s)": 138
    },
    {
        "Altitude(m)": 705494.1467807153,
        "Argument of Periapsis(deg)": 0.00833277286811138,
        "Eccentricity": 0.0,
        "Inclination(deg)": 45.0,
        "Latitude(deg)": 36.759093815591584,
        "Longitude(deg)": -32.57288952316221,
        "Mean Anomaly(deg)": 57.528358494735976,
        "RAAN(deg)": 19.99213410598584,
        "Satellite Name": "Constellation 1 91",
        "Satellite Number": 91,
        "Semi-Major Axis(m)": 7083131.272910544,
        "Time(s)": 139
    },
    {
        "Altitude(m)": 705499.9384511916,
        "Argument of Periapsis(deg)": 0.008392720874356788,
        "Eccentricity": 0.0,
        "Inclination(deg)": 45.0,
        "Latitude(deg)": 36.78790766939059,
        "Longitude(deg)": -32.51034637608286,
        "Mean Anomaly(deg)": 57.589059634985865,
        "RAAN(deg)": 19.99207751682027,
        "Satellite Name": "Constellation 1 91",
        "Satellite Number": 91,
        "Semi-Major Axis(m)": 7083131.272910544,
        "Time(s)": 140
    },
    {
        "Altitude(m)": 705505.7263624346,
        "Argument of Periapsis(deg)": 0.008452668880602192,
        "Eccentricity": 0.0,
        "Inclination(deg)": 45.0,
        "Latitude(deg)": 36.816684019463786,
        "Longitude(deg)": -32.4477535336057,
        "Mean Anomaly(deg)": 57.64976077523577,
        "RAAN(deg)": 19.9920209276547,
        "Satellite Name": "Constellation 1 91",
        "Satellite Number": 91,
        "Semi-Major Axis(m)": 7083131.272910544,
        "Time(s)": 141
    },
    {
        "Altitude(m)": 705511.5104783057,
        "Argument of Periapsis(deg)": 0.008512616886847598,
        "Eccentricity": 0.0,
        "Inclination(deg)": 45.0,
        "Latitude(deg)": 36.84542279928261,
        "Longitude(deg)": -32.38511063492965,
        "Mean Anomaly(deg)": 57.71046191548565,
        "RAAN(deg)": 19.991964338489133,
        "Satellite Name": "Constellation 1 91",
        "Satellite Number": 91,
        "Semi-Major Axis(m)": 7083131.272910544,
        "Time(s)": 142
    },
    {
        "Altitude(m)": 705517.2907627033,
        "Argument of Periapsis(deg)": 0.008572564893093004,
        "Eccentricity": 0.0,
        "Inclination(deg)": 45.0,
        "Latitude(deg)": 36.87412394226868,
        "Longitude(deg)": -32.322417823826115,
        "Mean Anomaly(deg)": 57.77116305573556,
        "RAAN(deg)": 19.991907749323563,
        "Satellite Name": "Constellation 1 91",
        "Satellite Number": 91,
        "Semi-Major Axis(m)": 7083131.272910544,
        "Time(s)": 143
    },
    {
        "Altitude(m)": 705523.0671795661,
        "Argument of Periapsis(deg)": 0.008632512899338408,
        "Eccentricity": 0.0,
        "Inclination(deg)": 45.0,
        "Latitude(deg)": 36.902787381795086,
        "Longitude(deg)": -32.25967507625282,
        "Mean Anomaly(deg)": 57.83186419598546,
        "RAAN(deg)": 19.991851160157992,
        "Satellite Name": "Constellation 1 91",
        "Satellite Number": 91,
        "Semi-Major Axis(m)": 7083131.272910544,
        "Time(s)": 144
    },
    {
        "Altitude(m)": 705528.8396928622,
        "Argument of Periapsis(deg)": 0.008692460905583814,
        "Eccentricity": 0.0,
        "Inclination(deg)": 45.0,
        "Latitude(deg)": 36.931413051186354,
        "Longitude(deg)": -32.19688236845204,
        "Mean Anomaly(deg)": 57.89256533623537,
        "RAAN(deg)": 19.991794570992425,
        "Satellite Name": "Constellation 1 91",
        "Satellite Number": 91,
        "Semi-Major Axis(m)": 7083131.272910544,
        "Time(s)": 145
    },
    {
        "Altitude(m)": 705534.6082665955,
        "Argument of Periapsis(deg)": 0.00875240891182922,
        "Eccentricity": 0.0,
        "Inclination(deg)": 45.0,
        "Latitude(deg)": 36.96000088371882,
        "Longitude(deg)": -32.134039676952064,
        "Mean Anomaly(deg)": 57.953266476485254,
        "RAAN(deg)": 19.99173798182685,
        "Satellite Name": "Constellation 1 91",
        "Satellite Number": 91,
        "Semi-Major Axis(m)": 7083131.272910544,
        "Time(s)": 146
    },
    {
        "Altitude(m)": 705540.3728648053,
        "Argument of Periapsis(deg)": 0.008812356918074627,
        "Eccentricity": 0.0,
        "Inclination(deg)": 45.0,
        "Latitude(deg)": 36.98855081262102,
        "Longitude(deg)": -32.07114697856861,
        "Mean Anomaly(deg)": 58.013967616735165,
        "RAAN(deg)": 19.991681392661285,
        "Satellite Name": "Constellation 1 91",
        "Satellite Number": 91,
        "Semi-Major Axis(m)": 7083131.272910544,
        "Time(s)": 147
    },
    {
        "Altitude(m)": 705546.1334515685,
        "Argument of Periapsis(deg)": 0.008872304924320031,
        "Eccentricity": 0.0,
        "Inclination(deg)": 45.0,
        "Latitude(deg)": 37.0170627710736,
        "Longitude(deg)": -32.00820441850309,
        "Mean Anomaly(deg)": 58.07466875698505,
        "RAAN(deg)": 19.991624803495714,
        "Satellite Name": "Constellation 1 91",
        "Satellite Number": 91,
        "Semi-Major Axis(m)": 7083131.272910544,
        "Time(s)": 148
    },
    {
        "Altitude(m)": 705551.889990994,
        "Argument of Periapsis(deg)": 0.008932252930565437,
        "Eccentricity": 0.0,
        "Inclination(deg)": 45.0,
        "Latitude(deg)": 37.04553669221082,
        "Longitude(deg)": -31.94521163795628,
        "Mean Anomaly(deg)": 58.13536989723496,
        "RAAN(deg)": 19.991568214330144,
        "Satellite Name": "Constellation 1 91",
        "Satellite Number": 91,
        "Semi-Major Axis(m)": 7083131.272910544,
        "Time(s)": 149
    },
    {
        "Altitude(m)": 705557.6424472291,
        "Argument of Periapsis(deg)": 0.008992200936810843,
        "Eccentricity": 0.0,
        "Inclination(deg)": 45.0,
        "Latitude(deg)": 37.073972509119194,
        "Longitude(deg)": -31.88216878271162,
        "Mean Anomaly(deg)": 58.196071037484856,
        "RAAN(deg)": 19.991511625164577,
        "Satellite Name": "Constellation 1 91",
        "Satellite Number": 91,
        "Semi-Major Axis(m)": 7083131.272910544,
        "Time(s)": 150
    },
    {
        "Altitude(m)": 705563.3907844563,
        "Argument of Periapsis(deg)": 0.009052148943056249,
        "Eccentricity": 0.0,
        "Inclination(deg)": 45.0,
        "Latitude(deg)": 37.10237015483907,
        "Longitude(deg)": -31.819075830748307,
        "Mean Anomaly(deg)": 58.25677217773477,
        "RAAN(deg)": 19.991455035999007,
        "Satellite Name": "Constellation 1 91",
        "Satellite Number": 91,
        "Semi-Major Axis(m)": 7083131.272910544,
        "Time(s)": 151
    }
]